NORAD_CAT_ID,OBJECT_NAME,OBJECT_TYPE,EPOCH,MEAN_MOTION,ECCENTRICITY,INCLINATION,RA_OF_ASC_NODE,ARG_OF_PERICENTER,MEAN_ANOMALY,BSTAR,MEAN_MOTION_DOT,MEAN_MOTION_DDOT,TLE_LINE0,TLE_LINE1,TLE_LINE2,SEMIMAJOR_AXIS,PERIOD,APOGEE,PERIGEE,DECAYED
53037.0,STARLINK-4153,PAYLOAD,2024-04-22 10:18:17,15.08838947,0.0001561,53.2187,274.8593,89.9689,270.1482,0.00012647,1.725e-05,0.0,0 STARLINK-4153,1 53037U 22076BD  24113.42936574  .00001725  00000-0  12647-3 0  9994,2 53037  53.2187 274.8593 0001561  89.9689 270.1482 15.08838947 99528,6917.884,95.438,540.828,538.669,0.0
53037.0,STARLINK-4153,PAYLOAD,2024-04-22 18:15:12,15.08839059,0.0001383,53.2183,273.3713,89.8543,270.2608,0.00012098,1.638e-05,0.0,0 STARLINK-4153,1 53037U 22076BD  24113.76056638  .00001638  00000-0  12098-3 0  9998,2 53037  53.2183 273.3713 0001383  89.8543 270.2608 15.08839059 99573,6917.883,95.438,540.705,538.792,0.0
53037.0,STARLINK-4153,PAYLOAD,2024-04-23 10:09:04,15.08839714,0.0001402,53.2184,270.3998,79.227,280.888,7.8851e-05,9.67e-06,0.0,0 STARLINK-4153,1 53037U 22076BD  24114.42296934  .00000967  00000-0  78851-4 0  9991,2 53037  53.2184 270.3998 0001402  79.2270 280.8880 15.08839714100130,6917.881,95.438,540.716,538.776,0.0
53037.0,STARLINK-4153,PAYLOAD,2024-04-23 14:55:14,15.08834775,0.0001476,53.2185,269.5064,73.9042,286.2113,4.0426e-05,3.55e-06,0.0,0 STARLINK-4153,1 53037U 22076BD  24114.62169448  .00000355  00000-0  40426-4 0  9990,2 53037  53.2185 269.5064 0001476  73.9042 286.2113 15.08834775 99705,6917.896,95.438,540.782,538.74,0.0
53037.0,STARLINK-4153,PAYLOAD,2024-04-23 18:06:00,15.08835588,0.0001392,53.2184,268.9116,79.7168,280.3981,3.4187e-05,2.56e-06,0.0,0 STARLINK-4153,1 53037U 22076BD  24114.75417381  .00000256  00000-0  34187-4 0  9993,2 53037  53.2184 268.9116 0001392  79.7168 280.3981 15.08835588 99728,6917.894,95.438,540.722,538.796,0.0
53037.0,STARLINK-4153,PAYLOAD,2024-04-24 09:59:52,15.08832608,0.000134,53.2183,265.9378,92.1596,267.9549,3.5096e-05,2.71e-06,0.0,0 STARLINK-4153,1 53037U 22076BD  24115.41657711  .00000271  00000-0  35096-4 0  9997,2 53037  53.2183 265.9378 0001340  92.1596 267.9549 15.08832608 99823,6917.903,95.438,540.695,538.841,0.0
53037.0,STARLINK-4153,PAYLOAD,2024-04-24 16:21:24,15.08837432,0.0001437,53.2183,264.7511,72.9789,287.136,9.4084e-05,1.21e-05,0.0,0 STARLINK-4153,1 53037U 22076BD  24115.68153373  .00001210  00000-0  94084-4 0  9997,2 53037  53.2183 264.7511 0001437  72.9789 287.1360 15.08837432 99865,6917.888,95.438,540.747,538.759,0.0
53037.0,STARLINK-4153,PAYLOAD,2024-04-25 13:01:25,15.08835159,0.0001357,53.2179,260.8843,89.38,270.7348,0.00010913,1.449e-05,0.0,0 STARLINK-4153,1 53037U 22076BD  24116.54265512  .00001449  00000-0  10913-3 0  9994,2 53037  53.2179 260.8843 0001357  89.3800 270.7348 15.08835159100458,6917.895,95.438,540.699,538.821,0.0
53037.0,STARLINK-4153,PAYLOAD,2024-04-25 14:36:48,15.0883464,0.0001292,53.2179,260.5865,99.4727,260.6411,0.0001016,1.329e-05,0.0,0 STARLINK-4153,1 53037U 22076BD  24116.60889538  .00001329  00000-0  10160-3 0  9992,2 53037  53.2179 260.5865 0001292  99.4727 260.6411 15.08834640100001,6917.897,95.438,540.656,538.868,0.0
53037.0,STARLINK-4153,PAYLOAD,2024-04-25 16:12:11,15.08833483,0.0001255,53.2179,260.2893,99.1298,260.9836,8.9156e-05,1.131e-05,0.0,0 STARLINK-4153,1 53037U 22076BD  24116.67513677  .00001131  00000-0  89156-4 0  9990,2 53037  53.2179 260.2893 0001255  99.1298 260.9836 15.08833483100017,6917.9,95.438,540.634,538.897,0.0
53037.0,STARLINK-4153,PAYLOAD,2024-04-26 14:27:35,15.08838413,0.0001253,53.2178,256.1272,85.4336,274.68,2.9141e-05,1.76e-06,0.0,0 STARLINK-4153,1 53037U 22076BD  24117.60249851  .00000176  00000-0  29141-4 0  9990,2 53037  53.2178 256.1272 0001253  85.4336 274.6800 15.08838413100156,6917.885,95.438,540.617,538.883,0.0
53037.0,STARLINK-4153,PAYLOAD,2024-04-26 16:02:58,15.08840973,0.0001234,53.2176,255.8304,76.364,283.7489,5.0816e-05,5.21e-06,0.0,0 STARLINK-4153,1 53037U 22076BD  24117.66873652  .00000521  00000-0  50816-4 0  9995,2 53037  53.2176 255.8304 0001234  76.3640 283.7489 15.08840973100622,6917.877,95.437,540.596,538.889,0.0
53037.0,STARLINK-4153,PAYLOAD,2024-04-27 01:35:15,15.08860752,0.0001323,53.2181,254.0447,77.5925,282.5215,0.00019985,2.896e-05,0.0,0 STARLINK-4153,1 53037U 22076BD  24118.06615642  .00002896  00000-0  19985-3 0  9991,2 53037  53.2181 254.0447 0001323  77.5925 282.5215 15.08860752100682,6917.817,95.436,540.597,538.767,0.0
53037.0,STARLINK-4153,PAYLOAD,2024-04-27 12:43:00,15.08821515,0.0001607,53.2185,251.9647,85.3123,274.8053,-7.5805e-05,-1.494e-05,0.0,0 STARLINK-4153,1 53037U 22076BD  24118.52987143 -.00001494  00000-0 -75805-4 0  9999,2 53037  53.2185 251.9647 0001607  85.3123 274.8053 15.08821515100752,6917.937,95.439,540.914,538.69,0.0
53037.0,STARLINK-4153,PAYLOAD,2024-04-27 14:18:23,15.08825609,0.0001599,53.2199,251.672,109.6052,250.5113,-4.8237e-05,-1.055e-05,0.0,0 STARLINK-4153,1 53037U 22076BD  24118.59610770 -.00001055  00000-0 -48237-4 0  9997,2 53037  53.2199 251.6720 0001599 109.6052 250.5113 15.08825609100304,6917.924,95.438,540.896,538.683,0.0
53037.0,STARLINK-4153,PAYLOAD,2024-04-27 15:53:46,15.08826899,0.0001724,53.2203,251.3771,116.463,243.6539,-3.0795e-05,-7.78e-06,0.0,0 STARLINK-4153,1 53037U 22076BD  24118.66234736 -.00000778  00000-0 -30795-4 0  9990,2 53037  53.2203 251.3771 0001724 116.4630 243.6539 15.08826899100779,6917.92,95.438,540.978,538.593,0.0
53037.0,STARLINK-4153,PAYLOAD,2024-04-28 01:26:04,15.08844801,0.0001169,53.2179,249.5845,81.1301,278.9823,0.00012579,1.715e-05,0.0,0 STARLINK-4153,1 53037U 22076BD  24119.05977151  .00001715  00000-0  12579-3 0  9998,2 53037  53.2179 249.5845 0001169  81.1301 278.9823 15.08844801100835,6917.866,95.437,540.539,538.922,0.0
53037.0,STARLINK-4153,PAYLOAD,2024-04-28 12:33:48,15.08820154,0.0001116,53.2176,247.5034,88.1224,271.9896,-0.00011759,-2.158e-05,0.0,0 STARLINK-4153,1 53037U 22076BD  24119.52347677 -.00002158  00000-0 -11759-3 0  9997,2 53037  53.2176 247.5034 0001116  88.1224 271.9896 15.08820154100909,6917.941,95.439,540.578,539.034,0.0
53037.0,STARLINK-4153,PAYLOAD,2024-04-28 14:09:11,15.08820624,0.0001118,53.2173,247.2061,89.3834,270.7286,-0.00011133,-2.058e-05,0.0,0 STARLINK-4153,1 53037U 22076BD  24119.58971684 -.00002058  00000-0 -11133-3 0  9999,2 53037  53.2173 247.2061 0001118  89.3834 270.7286 15.08820624100457,6917.94,95.439,540.578,539.031,0.0
53037.0,STARLINK-4153,PAYLOAD,2024-04-28 17:19:56,15.08833603,0.0001065,53.2176,246.6108,83.6197,276.4916,-3.388e-06,-3.42e-06,0.0,0 STARLINK-4153,1 53037U 22076BD  24119.72218679 -.00000342  00000-0 -33880-5 0  9992,2 53037  53.2176 246.6108 0001065  83.6197 276.4916 15.08833603100932,6917.9,95.438,540.502,539.028,0.0
53037.0,STARLINK-4153,PAYLOAD,2024-04-29 01:16:51,15.08848696,0.000121,53.2185,245.1245,91.2875,268.8256,-5.7881e-05,-1.209e-05,0.0,0 STARLINK-4153,1 53037U 22076BD  24120.05337825 -.00001209  00000-0 -57881-4 0  9994,2 53037  53.2185 245.1245 0001210  91.2875 268.8256 15.08848696100983,6917.854,95.437,540.556,538.882,0.0
53037.0,STARLINK-4153,PAYLOAD,2024-04-29 12:24:35,15.08823332,0.0001565,53.219,243.0463,106.8173,253.2991,0.00011704,1.574e-05,0.0,0 STARLINK-4153,1 53037U 22076BD  24120.51707179  .00001574  00000-0  11704-3 0  9994,2 53037  53.2190 243.0463 0001565 106.8173 253.2991 15.08823332101058,6917.931,95.439,540.879,538.714,0.0
53037.0,STARLINK-4153,PAYLOAD,2024-04-29 15:35:21,15.0883059,0.0001369,53.2187,242.4501,97.511,262.6038,8.6603e-05,1.09e-05,0.0,0 STARLINK-4153,1 53037U 22076BD  24120.64954920  .00001090  00000-0  86603-4 0  9990,2 53037  53.2187 242.4501 0001369  97.5110 262.6038 15.08830590100610,6917.909,95.438,540.721,538.827,0.0
53037.0,STARLINK-4153,PAYLOAD,2024-04-30 01:07:38,15.08851366,0.000121,53.2182,240.664,86.0314,274.0817,9.5673e-05,1.236e-05,0.0,0 STARLINK-4153,1 53037U 22076BD  24121.04697486  .00001236  00000-0  95673-4 0  9995,2 53037  53.2182 240.6640 0001210  86.0314 274.0817 15.08851366101137,6917.846,95.437,540.548,538.874,0.0
53037.0,STARLINK-4153,PAYLOAD,2024-04-30 13:50:44,15.0882951,0.0001507,53.2194,238.2853,103.1102,257.0059,0.00014118,1.959e-05,0.0,0 STARLINK-4153,1 53037U 22076BD  24121.57690842  .00001959  00000-0  14118-3 0  9998,2 53037  53.2194 238.2853 0001507 103.1102 257.0059 15.08829510101218,6917.912,95.438,540.82,538.735,0.0
53037.0,STARLINK-4153,PAYLOAD,2024-04-30 15:26:07,15.08839038,0.0001117,53.2182,237.9879,88.7087,271.4033,8.1911e-05,1.016e-05,0.0,0 STARLINK-4153,1 53037U 22076BD  24121.64314453  .00001016  00000-0  81911-4 0  9997,2 53037  53.2182 237.9879 0001117  88.7087 271.4033 15.08839038101225,6917.883,95.438,540.521,538.976,0.0
53037.0,STARLINK-4153,PAYLOAD,2024-05-01 00:58:25,15.08850286,0.0001198,53.2186,236.2061,90.6182,269.4947,9.9392e-05,1.295e-05,0.0,0 STARLINK-4153,1 53037U 22076BD  24122.04057587  .00001295  00000-0  99392-4 0  9995,2 53037  53.2186 236.2061 0001198  90.6182 269.4947 15.08850286101286,6917.849,95.437,540.543,538.885,0.0
53037.0,STARLINK-4153,PAYLOAD,2024-05-01 13:41:31,15.08840259,0.0001092,53.2184,233.8267,93.868,266.2437,7.6454e-05,9.29e-06,0.0,0 STARLINK-4153,1 53037U 22076BD  24122.57050098  .00000929  00000-0  76454-4 0  9990,2 53037  53.2184 233.8267 0001092  93.8680 266.2437 15.08840259101363,6917.88,95.438,540.5,538.989,0.0
53037.0,STARLINK-4153,PAYLOAD,2024-05-02 00:49:12,15.08852843,0.0001428,53.2176,231.7454,81.7521,278.3633,7.3102e-07,-2.76e-06,0.0,0 STARLINK-4153,1 53037U 22076BD  24123.03417277 -.00000276  00000-0  73102-6 0  9993,2 53037  53.2176 231.7454 0001428  81.7521 278.3633 15.08852843101434,6917.841,95.437,540.694,538.718,0.0
53037.0,STARLINK-4153,PAYLOAD,2024-05-02 13:32:18,15.0883095,0.0001338,53.218,229.3645,94.2888,265.8257,-3.8478e-05,-9e-06,0.0,0 STARLINK-4153,1 53037U 22076BD  24123.56410724 -.00000900  00000-0 -38478-4 0  9991,2 53037  53.2180 229.3645 0001338  94.2888 265.8257 15.08830950101516,6917.908,95.438,540.699,538.847,0.0
